NORAD_CAT_ID,OBJECT_NAME,OBJECT_TYPE,EPOCH,MEAN_MOTION,ECCENTRICITY,INCLINATION,RA_OF_ASC_NODE,ARG_OF_PERICENTER,MEAN_ANOMALY,BSTAR,MEAN_MOTION_DOT,MEAN_MOTION_DDOT,TLE_LINE0,TLE_LINE1,TLE_LINE2,SEMIMAJOR_AXIS,PERIOD,APOGEE,PERIGEE,DECAYED
49146.0,STARLINK-3116,PAYLOAD,2023-06-17 08:18:33,14.98315391,0.0003535,69.9998,266.5959,267.1385,92.937,-0.00010406,-1.334e-05,0.0,0 STARLINK-3116,1 49146U 21082S   23168.34621878 -.00001334  00000-0 -10406-3 0  9993,2 49146  69.9998 266.5959 0003535 267.1385  92.9370 14.98315391 98388,6950.238,96.108,574.56,569.646,0.0
49146.0,STARLINK-3116,PAYLOAD,2023-06-17 13:06:57,14.98316978,0.0003351,69.9999,266.0901,264.6645,95.4132,-5.4017e-05,-7.37e-06,0.0,0 STARLINK-3116,1 49146U 21082S   23168.54649800 -.00000737  00000-0 -54017-4 0  9993,2 49146  69.9999 266.0901 0003351 264.6645  95.4132 14.98316978 98429,6950.233,96.108,574.427,569.769,0.0
49146.0,STARLINK-3116,PAYLOAD,2023-06-17 17:55:21,14.98322655,0.0003465,69.9998,265.5857,266.7596,93.3167,-2.7341e-05,-4.19e-06,0.0,0 STARLINK-3116,1 49146U 21082S   23168.74677486 -.00000419  00000-0 -27341-4 0  9993,2 49146  69.9998 265.5857 0003465 266.7596  93.3167 14.98322655 98442,6950.216,96.107,574.489,569.672,0.0
49146.0,STARLINK-3116,PAYLOAD,2023-06-18 00:19:53,14.9832708,0.0003474,69.9998,264.9124,266.6671,93.409,-1.9803e-05,-3.29e-06,0.0,0 STARLINK-3116,1 49146U 21082S   23169.01381274 -.00000329  00000-0 -19803-4 0  9995,2 49146  69.9998 264.9124 0003474 266.6671  93.4090 14.98327080 98493,6950.202,96.107,574.481,569.652,0.0
49146.0,STARLINK-3116,PAYLOAD,2023-06-18 13:08:57,14.98338571,0.0003544,69.9996,263.5657,266.5135,93.5619,-7.9092e-07,-1.03e-06,0.0,0 STARLINK-3116,1 49146U 21082S   23169.54788448 -.00000103  00000-0 -79092-6 0  9995,2 49146  69.9996 263.5657 0003544 266.5135  93.5619 14.98338571 98562,6950.166,96.106,574.495,569.568,0.0
49146.0,STARLINK-3116,PAYLOAD,2023-06-19 05:10:18,14.98324412,0.0003567,69.9997,261.8824,264.9793,95.0959,0.00025621,2.965e-05,0.0,0 STARLINK-3116,1 49146U 21082S   23170.21548693  .00002965  00000-0  25621-3 0  9999,2 49146  69.9997 261.8824 0003567 264.9793  95.0959 14.98324412 98672,6950.21,96.107,574.554,569.596,0.0
49146.0,STARLINK-3116,PAYLOAD,2023-06-19 13:10:58,14.98330093,0.0003563,69.9997,261.0407,265.2732,94.8021,0.00021819,2.511e-05,0.0,0 STARLINK-3116,1 49146U 21082S   23170.54928539  .00002511  00000-0  21819-3 0  9998,2 49146  69.9997 261.0407 0003563 265.2732  94.8021 14.98330093 98718,6950.193,96.107,574.534,569.581,0.0
49146.0,STARLINK-3116,PAYLOAD,2023-06-20 05:12:19,14.98330541,0.000351,69.9998,259.3576,265.9277,94.1481,8.7152e-05,9.47e-06,0.0,0 STARLINK-3116,1 49146U 21082S   23171.21688848  .00000947  00000-0  87152-4 0  9993,2 49146  69.9998 259.3576 0003510 265.9277  94.1481 14.98330541 98822,6950.191,96.107,574.496,569.617,0.0
49146.0,STARLINK-3116,PAYLOAD,2023-06-20 16:25:15,14.98333369,0.0003414,70.0001,258.1801,263.392,96.6851,4.9778e-05,5.01e-06,0.0,0 STARLINK-3116,1 49146U 21082S   23171.68420639  .00000501  00000-0  49778-4 0  9994,2 49146  70.0001 258.1801 0003414 263.3920  96.6851 14.98333369 98883,6950.182,96.107,574.42,569.675,0.0
49146.0,STARLINK-3116,PAYLOAD,2023-06-21 11:38:52,14.98331345,0.000339,70.0002,256.16,267.597,92.4801,2.9361e-05,2.57e-06,0.0,0 STARLINK-3116,1 49146U 21082S   23172.48532696  .00000257  00000-0  29361-4 0  9994,2 49146  70.0002 256.1600 0003390 267.5970  92.4801 14.98331345 99010,6950.189,96.107,574.41,569.698,0.0
49146.0,STARLINK-3116,PAYLOAD,2023-06-21 13:15:00,14.98331315,0.0003392,70.0002,255.9917,267.5912,92.4858,2.709e-05,2.3e-06,0.0,0 STARLINK-3116,1 49146U 21082S   23172.55208691  .00000230  00000-0  27090-4 0  9995,2 49146  70.0002 255.9917 0003392 267.5912  92.4858 14.98331315 99015,6950.189,96.107,574.411,569.696,0.0
49146.0,STARLINK-3116,PAYLOAD,2023-06-21 14:51:08,14.98331764,0.000339,70.0002,255.8234,267.8205,92.2566,3.0266e-05,2.68e-06,0.0,0 STARLINK-3116,1 49146U 21082S   23172.61884643  .00000268  00000-0  30266-4 0  9999,2 49146  70.0002 255.8234 0003390 267.8205  92.2566 14.98331764 99025,6950.187,96.107,574.409,569.696,0.0
49146.0,STARLINK-3116,PAYLOAD,2023-06-21 22:51:49,14.98313733,0.0003402,69.9999,254.9821,265.5203,94.5567,0.00032236,3.754e-05,0.0,0 STARLINK-3116,1 49146U 21082S   23172.95265290  .00003754  00000-0  32236-3 0  9998,2 49146  69.9999 254.9821 0003402 265.5203  94.5567 14.98313733 99084,6950.243,96.108,574.473,569.744,0.0
49146.0,STARLINK-3116,PAYLOAD,2023-06-22 10:04:45,14.98327443,0.000357,69.9997,253.8037,271.1192,88.9558,-4.9943e-06,-1.53e-06,0.0,0 STARLINK-3116,1 49146U 21082S   23173.41997012 -.00000153  00000-0 -49943-5 0  9991,2 49146  69.9997 253.8037 0003570 271.1192  88.9558 14.98327443 99153,6950.201,96.107,574.547,569.585,0.0
49146.0,STARLINK-3116,PAYLOAD,2023-06-23 11:42:53,14.983386,0.0003712,69.9993,251.1098,270.5738,89.4996,0.00012186,1.362e-05,0.0,0 STARLINK-3116,1 49146U 21082S   23174.48811965  .00001362  00000-0  12186-3 0  9999,2 49146  69.9993 251.1098 0003712 270.5738  89.4996 14.98338600 99311,6950.166,96.106,574.611,569.451,0.0
49146.0,STARLINK-3116,PAYLOAD,2023-06-23 22:55:50,14.98331423,0.0003672,69.9994,249.9312,270.7578,89.316,6.3268e-05,6.62e-06,0.0,0 STARLINK-3116,1 49146U 21082S   23174.95544417  .00000662  00000-0  63268-4 0  9996,2 49146  69.9994 249.9312 0003672 270.7578  89.3160 14.98331423 99380,6950.188,96.107,574.606,569.501,0.0
49146.0,STARLINK-3116,PAYLOAD,2023-06-25 03:46:15,14.98333291,0.0003605,69.9995,246.9025,269.7857,90.2889,2.5268e-05,2.08e-06,0.0,0 STARLINK-3116,1 49146U 21082S   23176.15712296  .00000208  00000-0  25268-4 0  9996,2 49146  69.9995 246.9025 0003605 269.7857  90.2889 14.98333291 99567,6950.183,96.107,574.553,569.542,0.0
49146.0,STARLINK-3116,PAYLOAD,2023-06-26 10:12:48,14.98327334,0.0003472,69.9995,243.7043,269.9912,90.085,3.2537e-05,2.95e-06,0.0,0 STARLINK-3116,1 49146U 21082S   23177.42556556  .00000295  00000-0  32537-4 0  9995,2 49146  69.9995 243.7043 0003472 269.9912  90.0850 14.98327334 99756,6950.201,96.107,574.479,569.653,0.0
49146.0,STARLINK-3116,PAYLOAD,2023-06-27 10:14:49,14.98329591,0.0003507,69.9992,241.179,269.6798,90.3959,1.8046e-05,1.22e-06,0.0,0 STARLINK-3116,1 49146U 21082S   23178.42696483  .00000122  00000-0  18046-4 0  9998,2 49146  69.9992 241.1790 0003507 269.6798  90.3959 14.98329591 99909,6950.194,96.107,574.497,569.622,0.0
49146.0,STARLINK-3116,PAYLOAD,2023-06-28 10:16:50,14.9833036,0.0003657,69.9991,238.6542,270.2881,89.7859,8.8615e-05,9.64e-06,0.0,0 STARLINK-3116,1 49146U 21082S   23179.42836238  .00000964  00000-0  88615-4 0  9996,2 49146  69.9991 238.6542 0003657 270.2881  89.7859 14.98330360100057,6950.192,96.107,574.598,569.515,0.0
49146.0,STARLINK-3116,PAYLOAD,2023-06-29 10:18:51,14.98328215,0.0003761,69.9987,236.1288,269.284,90.7888,3.3124e-05,3.02e-06,0.0,0 STARLINK-3116,1 49146U 21082S   23180.42976490  .00000302  00000-0  33124-4 0  9994,2 49146  69.9987 236.1288 0003761 269.2840  90.7888 14.98328215100208,6950.198,96.107,574.677,569.449,0.0
49146.0,STARLINK-3116,PAYLOAD,2023-06-30 13:33:09,14.98339301,0.0003657,69.9984,233.2675,266.9538,93.1203,-0.00027855,-3.416e-05,0.0,0 STARLINK-3116,1 49146U 21082S   23181.56468894 -.00003416  00000-0 -27855-3 0  9998,2 49146  69.9984 233.2675 0003657 266.9538  93.1203 14.98339301100379,6950.164,96.106,574.571,569.487,0.0
49146.0,STARLINK-3116,PAYLOAD,2023-07-01 08:46:46,14.9832485,0.000394,69.9984,231.2468,269.2753,90.7954,8.869e-05,9.65e-06,0.0,0 STARLINK-3116,1 49146U 21082S   23182.36581200  .00000965  00000-0  88690-4 0  9993,2 49146  69.9984 231.2468 0003940 269.2753  90.7954 14.98324850100499,6950.209,96.107,574.812,569.335,0.0
49146.0,STARLINK-3116,PAYLOAD,2023-07-01 13:35:09,14.98350641,0.0003961,69.9985,230.742,269.2244,90.8462,-0.00031389,-3.839e-05,0.0,0 STARLINK-3116,1 49146U 21082S   23182.56608521 -.00003839  00000-0 -31389-3 0  9998,2 49146  69.9985 230.7420 0003961 269.2244  90.8462 14.98350641100526,6950.129,96.106,574.747,569.241,0.0
49146.0,STARLINK-3116,PAYLOAD,2023-07-02 02:24:14,14.98330524,0.0003874,69.9984,229.3954,270.9805,89.091,0.00013749,1.548e-05,0.0,0 STARLINK-3116,1 49146U 21082S   23183.10016936  .00001548  00000-0  13749-3 0  9995,2 49146  69.9984 229.3954 0003874 270.9805  89.0910 14.98330524100601,6950.191,96.107,574.749,569.364,0.0
49146.0,STARLINK-3116,PAYLOAD,2023-07-03 12:03:03,14.98340516,0.0003877,69.9985,225.8609,269.1841,90.8874,0.00011909,1.329e-05,0.0,0 STARLINK-3116,1 49146U 21082S   23184.50211930  .00001329  00000-0  11909-3 0  9994,2 49146  69.9985 225.8609 0003877 269.1841  90.8874 14.98340516100817,6950.16,96.106,574.72,569.331,0.0
49146.0,STARLINK-3116,PAYLOAD,2023-07-04 12:05:04,14.9833464,0.0003812,69.9986,223.3364,269.2055,90.8667,-2.5523e-05,-3.98e-06,0.0,0 STARLINK-3116,1 49146U 21082S   23185.50352203 -.00000398  00000-0 -25523-4 0  9999,2 49146  69.9986 223.3364 0003812 269.2055  90.8667 14.98334640100963,6950.179,96.107,574.693,569.394,0.0
49146.0,STARLINK-3116,PAYLOAD,2023-07-05 12:07:05,14.98333464,0.0003848,69.9986,220.811,268.264,91.8078,-3.2163e-05,-4.77e-06,0.0,0 STARLINK-3116,1 49146U 21082S   23186.50491947 -.00000477  00000-0 -32163-4 0  9995,2 49146  69.9986 220.8110 0003848 268.2640  91.8078 14.98333464101110,6950.182,96.107,574.722,569.373,0.0
49146.0,STARLINK-3116,PAYLOAD,2023-07-06 12:09:05,14.98330734,0.0003816,69.9986,218.2861,267.0238,93.0484,8.2134e-05,8.87e-06,0.0,0 STARLINK-3116,1 49146U 21082S   23187.50631724  .00000887  00000-0  82134-4 0  9991,2 49146  69.9986 218.2861 0003816 267.0238  93.0484 14.98330734101267,6950.191,96.107,574.708,569.403,0.0
49146.0,STARLINK-3116,PAYLOAD,2023-07-07 18:35:38,14.98353888,0.000403,69.9989,215.0877,271.5996,88.4701,-0.00034993,-4.269e-05,0.0,0 STARLINK-3116,1 49146U 21082S   23188.77474953 -.00004269  00000-0 -34993-3 0  9999,2 49146  69.9989 215.0877 0004030 271.5996  88.4701 14.98353888101458,6950.119,96.105,574.785,569.183,0.0
